[{"OBJECT_NAME":"STARLINK-3712","OBJECT_ID":"2022-029C","EPOCH":"2026-03-09T08:23:12.632928","MEAN_MOTION":15.0883664,"ECCENTRICITY":0.00013514,"INCLINATION":53.2167,"RA_OF_ASC_NODE":90.6486,"ARG_OF_PERICENTER":96.0054,"MEAN_ANOMALY":264.1092,"EPHEMERIS_TYPE":0,"CLASSIFICATION_TYPE":"U","NORAD_CAT_ID":52090,"ELEMENT_SET_NO":999,"REV_AT_EPOCH":22060,"BSTAR":3.2131688e-5,"MEAN_MOTION_DOT":2.23e-6,"MEAN_MOTION_DDOT":0},{"OBJECT_NAME":"STARLING 3","OBJECT_ID":"2023-100D","EPOCH":"2026-03-09T22:41:57.048288","MEAN_MOTION":15.11145977,"ECCENTRICITY":0.00066311,"INCLINATION":99.5096,"RA_OF_ASC_NODE":65.6477,"ARG_OF_PERICENTER":76.1122,"MEAN_ANOMALY":284.0839,"EPHEMERIS_TYPE":0,"CLASSIFICATION_TYPE":"U","NORAD_CAT_ID":57389,"ELEMENT_SET_NO":999,"REV_AT_EPOCH":14507,"BSTAR":0.00051487914,"MEAN_MOTION_DOT":8.551e-5,"MEAN_MOTION_DDOT":0}]
